[Satellite]
VERSION=1.1
NAME=CHUBUSAT-2
NICKNAME=CHUBUSAT-2
TLE1=1 41338U 16012B   19310.48377605  .00000319  00000-0  18141-4 0  9995
TLE2=2 41338  31.0040 329.9897 0013754  57.8168 302.3800 15.00204627204077
STATUS=0
